start=new Date('2023-03-27T00:00:00.000Z').valueOf();
sats=[{"CLASSIFICATION_TYPE":"U","TIME_SYSTEM":"UTC","ARG_OF_PERICENTER":"101.5018","OBJECT_TYPE":"PAYLOAD","OBJECT_NAME":"STARLINK-1068","TLE_LINE1":"1 44772U 19074BM  23085.93558103  .00032754  00000-0  22084-2 0  9996","NORAD_CAT_ID":"44772","INCLINATION":"53.0551","PERIAPSIS":"546.464","FILE":"3871964","TLE_LINE2":"2 44772  53.0551   9.3360 0001141 101.5018 258.6099 15.06386593185873","ELEMENT_SET_NO":"999","MEAN_MOTION":"15.06386593","LAUNCH_DATE":"2019-11-11","COUNTRY_CODE":"US","MEAN_MOTION_DDOT":"0.0000000000000","REF_FRAME":"TEME","SEMIMAJOR_AXIS":"6925.390","APOAPSIS":"548.045","BSTAR":"0.00220840000000","RA_OF_ASC_NODE":"9.3360","ECCENTRICITY":"0.00011410","GP_ID":"228915409","REV_AT_EPOCH":"18587","SITE":"AFETR","MEAN_ANOMALY":"258.6099","DECAY_DATE":null,"EPOCH":"2023-03-26T22:27:14.200992","RCS_SIZE":"LARGE","MEAN_MOTION_DOT":"0.00032754","OBJECT_ID":"2019-074BM","PERIOD":"95.593","MEAN_ELEMENT_THEORY":"SGP4","CENTER_NAME":"EARTH","EPHEMERIS_TYPE":"0"},{"OBJECT_ID":"2020-001A","MEAN_MOTION_DOT":"0.00024936","CENTER_NAME":"EARTH","EPHEMERIS_TYPE":"0","PERIOD":"95.594","MEAN_ELEMENT_THEORY":"SGP4","REV_AT_EPOCH":"17724","GP_ID":"228914173","RCS_SIZE":"LARGE","SITE":"AFETR","MEAN_ANOMALY":"281.3510","DECAY_DATE":null,"EPOCH":"2023-03-26T21:15:33.823296","MEAN_MOTION":"15.06378287","TLE_LINE2":"2 44914  53.0515 149.5565 0001345  78.7630 281.3510 15.06378287177240","ELEMENT_SET_NO":"999","LAUNCH_DATE":"2020-01-07","MEAN_MOTION_DDOT":"0.0000000000000","COUNTRY_CODE":"US","BSTAR":"0.00168800000000","RA_OF_ASC_NODE":"149.5565","ECCENTRICITY":"0.00013450","SEMIMAJOR_AXIS":"6925.415","REF_FRAME":"TEME","APOAPSIS":"548.212","ARG_OF_PERICENTER":"78.7630","OBJECT_TYPE":"PAYLOAD","OBJECT_NAME":"STARLINK-1073","TLE_LINE1":"1 44914U 20001A   23085.88580814  .00024936  00000-0  16880-2 0  9994","TIME_SYSTEM":"UTC","CLASSIFICATION_TYPE":"U","INCLINATION":"53.0515","FILE":"3871964","PERIAPSIS":"546.349","NORAD_CAT_ID":"44914"},{"REV_AT_EPOCH":"17721","GP_ID":"228914423","RCS_SIZE":"LARGE","EPOCH":"2023-03-26T15:35:55.686048","DECAY_DATE":null,"SITE":"AFETR","MEAN_ANOMALY":"297.3603","OBJECT_ID":"2020-001B","MEAN_MOTION_DOT":"0.00028244","EPHEMERIS_TYPE":"0","CENTER_NAME":"EARTH","MEAN_ELEMENT_THEORY":"SGP4","PERIOD":"95.597","TLE_LINE1":"1 44915U 20001B   23085.64995007  .00028244  00000-0  19112-2 0  9990","OBJECT_NAME":"STARLINK-1084","ARG_OF_PERICENTER":"62.7587","OBJECT_TYPE":"PAYLOAD","CLASSIFICATION_TYPE":"U","TIME_SYSTEM":"UTC","FILE":"3871964","PERIAPSIS":"546.067","INCLINATION":"53.0525","NORAD_CAT_ID":"44915","MEAN_MOTION_DDOT":"0.0000000000000","COUNTRY_CODE":"US","LAUNCH_DATE":"2020-01-07","TLE_LINE2":"2 44915  53.0525 150.6150 0001982  62.7587 297.3603 15.06326368177216","ELEMENT_SET_NO":"999","MEAN_MOTION":"15.06326368","ECCENTRICITY":"0.00019820","RA_OF_ASC_NODE":"150.6150","BSTAR":"0.00191120000000","APOAPSIS":"548.812","SEMIMAJOR_AXIS":"6925.574","REF_FRAME":"TEME"},{"TLE_LINE2":"2 44917  53.0544 151.4942 0001537  85.2688 274.8477 15.06376654177183","ELEMENT_SET_NO":"999","MEAN_MOTION":"15.06376654","MEAN_MOTION_DDOT":"0.0000000000000","COUNTRY_CODE":"US","LAUNCH_DATE":"2020-01-07","BSTAR":"0.00133380000000","ECCENTRICITY":"0.00015370","RA_OF_ASC_NODE":"151.4942","SEMIMAJOR_AXIS":"6925.420","REF_FRAME":"TEME","APOAPSIS":"548.350","ARG_OF_PERICENTER":"85.2688","OBJECT_TYPE":"PAYLOAD","TLE_LINE1":"1 44917U 20001D   23085.45457214  .00019629  00000-0  13338-2 0  9995","OBJECT_NAME":"STARLINK-1098","TIME_SYSTEM":"UTC","CLASSIFICATION_TYPE":"U","INCLINATION":"53.0544","PERIAPSIS":"546.221","FILE":"3871964","NORAD_CAT_ID":"44917","OBJECT_ID":"2020-001D","MEAN_MOTION_DOT":"0.00019629","EPHEMERIS_TYPE":"0","CENTER_NAME":"EARTH","PERIOD":"95.594","MEAN_ELEMENT_THEORY":"SGP4","REV_AT_EPOCH":"17718","GP_ID":"228915673","RCS_SIZE":"LARGE","MEAN_ANOMALY":"274.8477","SITE":"AFETR","EPOCH":"2023-03-26T10:54:35.032896","DECAY_DATE":null},{"OBJECT_ID":"2020-001E","MEAN_MOTION_DOT":"0.00016938","CENTER_NAME":"EARTH","EPHEMERIS_TYPE":"0","PERIOD":"95.592","MEAN_ELEMENT_THEORY":"SGP4","REV_AT_EPOCH":"17798","GP_ID":"228915423","RCS_SIZE":"LARGE","SITE":"AFETR","MEAN_ANOMALY":"237.6776","DECAY_DATE":null,"EPOCH":"2023-03-26T20:47:42.634752","TLE_LINE2":"2 44918  53.0541 149.6739 0001147 122.4324 237.6776 15.06396181177986","ELEMENT_SET_NO":"999","MEAN_MOTION":"15.06396181","LAUNCH_DATE":"2020-01-07","COUNTRY_CODE":"US","MEAN_MOTION_DDOT":"0.0000000000000","BSTAR":"0.00115340000000","RA_OF_ASC_NODE":"149.6739","ECCENTRICITY":"0.00011470","SEMIMAJOR_AXIS":"6925.360","REF_FRAME":"TEME","APOAPSIS":"548.020","ARG_OF_PERICENTER":"122.4324","OBJECT_TYPE":"PAYLOAD","TLE_LINE1":"1 44918U 20001E   23085.86646568  .00016938  00000-0  11534-2 0  9999","OBJECT_NAME":"STARLINK-1099","TIME_SYSTEM":"UTC","CLASSIFICATION_TYPE":"U","INCLINATION":"53.0541","PERIAPSIS":"546.431","FILE":"3871964","NORAD_CAT_ID":"44918"},{"TLE_LINE2":"2 44920  53.0528 146.8137 0004537  14.4165 345.6957 15.15314183177268","ELEMENT_SET_NO":"999","MEAN_MOTION":"15.15314183","MEAN_MOTION_DDOT":"0.0000000000000","COUNTRY_CODE":"US","LAUNCH_DATE":"2020-01-07","REF_FRAME":"TEME","SEMIMAJOR_AXIS":"6898.162","APOAPSIS":"523.157","BSTAR":"0.00203460000000","ECCENTRICITY":"0.00045370","RA_OF_ASC_NODE":"146.8137","CLASSIFICATION_TYPE":"U","TIME_SYSTEM":"UTC","ARG_OF_PERICENTER":"14.4165","OBJECT_TYPE":"PAYLOAD","TLE_LINE1":"1 44920U 20001G   23085.64862515  .00038693  00000-0  20346-2 0  9993","OBJECT_NAME":"STARLINK-1102","NORAD_CAT_ID":"44920","INCLINATION":"53.0528","FILE":"3871964","PERIAPSIS":"516.897","MEAN_MOTION_DOT":"0.00038693","OBJECT_ID":"2020-001G","PERIOD":"95.030","MEAN_ELEMENT_THEORY":"SGP4","EPHEMERIS_TYPE":"0","CENTER_NAME":"EARTH","GP_ID":"228914673","REV_AT_EPOCH":"17726","SITE":"AFETR","MEAN_ANOMALY":"345.6957","EPOCH":"2023-03-26T15:34:01.212960","DECAY_DATE":null,"RCS_SIZE":"LARGE"},{"BSTAR":"0.00166610000000","ECCENTRICITY":"0.00014980","RA_OF_ASC_NODE":"149.4823","SEMIMAJOR_AXIS":"6925.379","REF_FRAME":"TEME","APOAPSIS":"548.282","MEAN_MOTION":"15.06389930","TLE_LINE2":"2 44921  53.0525 149.4823 0001498  87.4479 272.6682 15.06389930177220","ELEMENT_SET_NO":"999","COUNTRY_CODE":"US","MEAN_MOTION_DDOT":"0.0000000000000","LAUNCH_DATE":"2020-01-07","INCLINATION":"53.0525","FILE":"3871964","PERIAPSIS":"546.207","NORAD_CAT_ID":"44921","ARG_OF_PERICENTER":"87.4479","OBJECT_TYPE":"PAYLOAD","TLE_LINE1":"1 44921U 20001H   23085.89962812  .00024615  00000-0  16661-2 0  9996","OBJECT_NAME":"STARLINK-1103","CLASSIFICATION_TYPE":"U","TIME_SYSTEM":"UTC","EPHEMERIS_TYPE":"0","CENTER_NAME":"EARTH","PERIOD":"95.593","MEAN_ELEMENT_THEORY":"SGP4","OBJECT_ID":"2020-001H","MEAN_MOTION_DOT":"0.00024615","RCS_SIZE":"LARGE","SITE":"AFETR","MEAN_ANOMALY":"272.6682","EPOCH":"2023-03-26T21:35:27.869568","DECAY_DATE":null,"REV_AT_EPOCH":"17722","GP_ID":"228914923"},{"OBJECT_ID":"2020-001J","MEAN_MOTION_DOT":"0.00023095","CENTER_NAME":"EARTH","EPHEMERIS_TYPE":"0","MEAN_ELEMENT_THEORY":"SGP4","PERIOD":"95.593","REV_AT_EPOCH":"17724","GP_ID":"228915173","RCS_SIZE":"LARGE","DECAY_DATE":null,"EPOCH":"2023-03-26T20:49:03.404928","MEAN_ANOMALY":"273.2164","SITE":"AFETR","LAUNCH_DATE":"2020-01-07","MEAN_MOTION_DDOT":"0.0000000000000","COUNTRY_CODE":"US","TLE_LINE2":"2 44922  53.0523 149.6396 0001571  86.9004 273.2164 15.06379380177248","ELEMENT_SET_NO":"999","MEAN_MOTION":"15.06379380","RA_OF_ASC_NODE":"149.6396","ECCENTRICITY":"0.00015710","BSTAR":"0.00156510000000","APOAPSIS":"548.365","REF_FRAME":"TEME","SEMIMAJOR_AXIS":"6925.412","TLE_LINE1":"1 44922U 20001J   23085.86740052  .00023095  00000-0  15651-2 0  9993","OBJECT_NAME":"STARLINK-1104","ARG_OF_PERICENTER":"86.9004","OBJECT_TYPE":"PAYLOAD","CLASSIFICATION_TYPE":"U","TIME_SYSTEM":"UTC","PERIAPSIS":"546.189","FILE":"3871964","INCLINATION":"53.0523","NORAD_CAT_ID":"44922"},{"GP_ID":"228915924","REV_AT_EPOCH":"17726","SITE":"AFETR","MEAN_ANOMALY":"48.6398","EPOCH":"2023-03-26T21:47:32.024256","DECAY_DATE":null,"RCS_SIZE":"LARGE","MEAN_MOTION_DOT":"0.00007008","OBJECT_ID":"2020-001K","PERIOD":"95.337","MEAN_ELEMENT_THEORY":"SGP4","EPHEMERIS_TYPE":"0","CENTER_NAME":"EARTH","CLASSIFICATION_TYPE":"U","TIME_SYSTEM":"UTC","ARG_OF_PERICENTER":"311.4464","OBJECT_TYPE":"PAYLOAD","TLE_LINE1":"1 44923U 20001K   23085.90800954  .00007008  00000-0  43869-3 0  9996","OBJECT_NAME":"STARLINK-1106","NORAD_CAT_ID":"44923","INCLINATION":"53.0529","FILE":"3871964","PERIAPSIS":"533.865","TLE_LINE2":"2 44923  53.0529 148.2332 0001498 311.4464  48.6398 15.10426562177269","ELEMENT_SET_NO":"999","MEAN_MOTION":"15.10426562","COUNTRY_CODE":"US","MEAN_MOTION_DDOT":"0.0000000000000","LAUNCH_DATE":"2020-01-07","SEMIMAJOR_AXIS":"6913.035","REF_FRAME":"TEME","APOAPSIS":"535.936","BSTAR":"0.00043869000000","ECCENTRICITY":"0.00014980","RA_OF_ASC_NODE":"148.2332"},{"BSTAR":"0.00051157000000","ECCENTRICITY":"0.00008700","RA_OF_ASC_NODE":"149.5902","REF_FRAME":"TEME","SEMIMAJOR_AXIS":"6925.370","APOAPSIS":"547.837","MEAN_MOTION":"15.06393101","TLE_LINE2":"2 44924  53.0547 149.5902 0000870  79.0387 281.0699 15.06393101177243","ELEMENT_SET_NO":"999","COUNTRY_CODE":"US","MEAN_MOTION_DDOT":"0.0000000000000","LAUNCH_DATE":"2020-01-07","INCLINATION":"53.0547","FILE":"3871964","PERIAPSIS":"546.632","NORAD_CAT_ID":"44924","ARG_OF_PERICENTER":"79.0387","OBJECT_TYPE":"PAYLOAD","OBJECT_NAME":"STARLINK-1111","TLE_LINE1":"1 44924U 20001L   23085.88214598  .00007345  00000-0  51157-3 0  9990","TIME_SYSTEM":"UTC","CLASSIFICATION_TYPE":"U","EPHEMERIS_TYPE":"0","CENTER_NAME":"EARTH","PERIOD":"95.593","MEAN_ELEMENT_THEORY":"SGP4","OBJECT_ID":"2020-001L","MEAN_MOTION_DOT":"0.00007345","RCS_SIZE":"LARGE","SITE":"AFETR","MEAN_ANOMALY":"281.0699","EPOCH":"2023-03-26T21:10:17.412672","DECAY_DATE":null,"REV_AT_EPOCH":"17724","GP_ID":"228914174"}];
